ONEWEB-0716             
1 55177U 23004AP  25176.14514933 -.00000017  00000+0 -77103-4 0  9996
2 55177  87.9062  76.9648 0001913  85.2242 274.9108 13.17647921120562
ONEWEB-0717             
1 55178U 23004AQ  25176.43201716  .00000024  00000+0  28446-4 0  9993
2 55178  87.9061  76.8662 0001791  52.4161 307.7132 13.17651603120651
ONEWEB-0719             
1 55179U 23004AR  25176.13840523 -.00000212  00000+0 -57925-3 0  9990
2 55179  87.9045  76.9088 0001748  74.3633 285.7691 13.17649374120563
ONEWEB-0530             
1 55796U 23029A   25176.42747319  .00000058  00000+0  11081-3 0  9992
2 55796  87.9267 345.5401 0001354  85.5773 274.5515 13.20770412114050
ONEWEB-0534             
1 55797U 23029B   25176.41484926  .00000061  00000+0  11886-3 0  9991
2 55797  87.9264 345.5508 0001786  97.7747 262.3589 13.20772823114055
ONEWEB-0556             
1 55798U 23029C   25176.42117503  .00000059  00000+0  11208-3 0  9992
2 55798  87.9264 345.5413 0001341 116.9186 243.2084 13.20771080114051
ONEWEB-0562             
1 55799U 23029D   25176.40853051  .00000031  00000+0  44215-4 0  9991
2 55799  87.9264 345.5372 0000845  93.5335 266.5895 13.20773574114058
ONEWEB-0563             
1 55800U 23029E   25176.47798440 -.00000029  00000+0 -10402-3 0  9990
2 55800  87.9261 345.5379 0001983 101.5274 258.6082 13.20772329114058
